[{"OBJECT_NAME":"TIMED","OBJECT_ID":"2001-055B","EPOCH":"2026-03-09T23:32:00.219840","MEAN_MOTION":14.95023149,"ECCENTRICITY":0.00030271,"INCLINATION":74.0661,"RA_OF_ASC_NODE":74.7343,"ARG_OF_PERICENTER":275.2296,"MEAN_ANOMALY":84.8543,"EPHEMERIS_TYPE":0,"CLASSIFICATION_TYPE":"U","NORAD_CAT_ID":26998,"ELEMENT_SET_NO":999,"REV_AT_EPOCH":31599,"BSTAR":0.00016805814,"MEAN_MOTION_DOT":1.8e-5,"MEAN_MOTION_DDOT":0},{"OBJECT_NAME":"SL-14 R\/B","OBJECT_ID":"1981-094B","EPOCH":"2026-03-09T21:30:19.492416","MEAN_MOTION":13.58083744,"ECCENTRICITY":0.08704644,"INCLINATION":82.4854,"RA_OF_ASC_NODE":232.0333,"ARG_OF_PERICENTER":95.3527,"MEAN_ANOMALY":274.7433,"EPHEMERIS_TYPE":0,"CLASSIFICATION_TYPE":"U","NORAD_CAT_ID":12849,"ELEMENT_SET_NO":999,"REV_AT_EPOCH":17275,"BSTAR":0.00019877381,"MEAN_MOTION_DOT":2.264e-5,"MEAN_MOTION_DDOT":0}]
